LAOSAT 1                
1 41034U 15067A   26177.04945852 -.00000332  00000+0  00000+0 0  9998
2 41034   0.0502 218.6947 0002656 191.0834  10.7156  1.00271886 38940
TELSTAR 12V             
1 41036U 15068A   26177.16365942 -.00000108  00000+0  00000+0 0  9991
2 41036   0.0176 333.8107 0002453 123.0217 221.3892  1.00273312 38710
ELEKTRO-L 2             
1 41105U 15074A   26176.94987031 -.00000113  00000+0  00000+0 0  9995
2 41105   6.7170  70.4166 0000728 286.6211 244.4527  1.00271163 38595
COSMOS 2513             
1 41121U 15075A   26177.18255286 -.00000127  00000+0  00000+0 0  9996
2 41121   0.0748 102.4811 0003521 334.7557 343.0470  1.00270827 38630
EXPRESS-AMU1            
1 41191U 15082A   26177.17379948  .00000166  00000+0  00000+0 0  9994
2 41191   0.0168  32.8170 0002963  62.5921 277.5346  1.00271812 38354
GAOFEN-4                
1 41194U 15083A   26176.90227766 -.00000324  00000+0  00000+0 0  9995
2 41194   0.3805  83.9226 0004051 113.8387 146.7998  1.00271078 38616
BELINTERSAT-1           
1 41238U 16001A   26177.17683284  .00000118  00000+0  00000+0 0  9996
2 41238   0.0061 227.5388 0001796 197.8757 324.0465  1.00270523 38329
IRNSS-1E                
1 41241U 16003A   26176.59836588 -.00000319  00000+0  00000+0 0  9998
2 41241  33.2517  59.6282 0019062 179.1130   2.2203  1.00274592 38164
EUTELSAT 9B             
1 41310U 16005A   26177.16842611  .00000072  00000+0  00000+0 0  9990
2 41310   0.0444  62.5804 0001774   2.0921 279.2643  1.00269851 38209
SES-9                   
1 41380U 16013A   26176.40380905 -.00000335  00000+0  00000+0 0  9998
2 41380   0.0123 330.7857 0002423 116.8635  79.5646  1.00272436 37527
EUTELSAT 65 WEST A      
1 41382U 16014A   26177.14350500 -.00000265  00000+0  00000+0 0  9993
2 41382   0.0465 353.7369 0002733  98.2576 168.7467  1.00271914 37614
IRNSS-1F                
1 41384U 16015A   26176.95919204  .00000164  00000+0  00000+0 0  9993
2 41384   5.3703  96.5826 0017447 184.4675  10.7518  1.00271994 37751
BEIDOU-2 IGSO-6         
1 41434U 16021A   26175.09191728 -.00000155  00000+0  00000+0 0  9994
2 41434  60.2358  37.9691 0057538 231.1257 128.7042  1.00259092 37558
IRNSS-1G                
1 41469U 16027A   26176.35615294 -.00000329  00000+0  00000+0 0  9990
2 41469   5.2158  97.2878 0006269   2.9813  70.7125  1.00276580 37263
JCSAT-2B                
1 41471U 16028A   26176.98319882 -.00000155  00000+0  00000+0 0  9994
2 41471   0.0186  10.9972 0001191  78.5320 332.5344  1.00271027 37216
THAICOM 8               
1 41552U 16031A   26177.18220618 -.00000110  00000+0  00000+0 0  9990
2 41552   0.0708  47.0889 0003828  18.6688 352.6341  1.00272257 36805
INTELSAT 31 (IS-31)     
1 41581U 16035A   26177.19426395 -.00000140  00000+0  00000+0 0  9990
2 41581   0.0144 283.5507 0000699 334.6918 350.9622  1.00272040 36774
BEIDOU-2 G7             
1 41586U 16037A   26177.11715581 -.00000344  00000+0  00000+0 0  9993
2 41586   1.7426  69.4098 0006841   0.9868 356.5770  1.00272762  6974
ABS-2A (MONGOLSAT-1)    
1 41588U 16038A   26177.11013579  .00000000  00000+0  00000+0 0  9992
2 41588   0.0244 357.9583 0001912  37.7655 352.9222  1.00264201 36790
EUTELSAT 117 WEST B     
1 41589U 16038B   26177.00086669 -.00000001  00000+0  00000+0 0  9993
2 41589   0.0089 149.5710 0000346 105.6280 262.2624  1.00273901 36756
BRISAT                  
1 41591U 16039A   26177.12504251 -.00000186  00000+0  00000+0 0  9996
2 41591   0.0189 323.4089 0002236 124.7520  21.5971  1.00271563 36709
ECHOSTAR 18             
1 41592U 16039B   26176.58277853 -.00000272  00000+0  00000+0 0  9997
2 41592   0.0036  86.4329 0001876   8.8577 326.8628  1.00275248 36701
MUOS-5                  
1 41622U 16041A   26177.16016714 -.00000136  00000+0  00000+0 0  9995
2 41622   2.1839 301.8357 0197926 260.6161  24.3040  1.00273496 37176
TIANTONG-1 1            
1 41725U 16048A   26177.11542248 -.00000310  00000+0  00000+0 0  9991
2 41725   3.8662  43.4958 0005908  48.7772 324.9495  1.00271486 36369
JCSAT-16                
1 41729U 16050A   26176.90999102 -.00000240  00000+0  00000+0 0  9991
2 41729   0.0184   6.0769 0001274  95.9873 283.5251  1.00271490 36156
USA 270                 
1 41744U 16052A   26173.63364372 -.00000244  00000+0  00000+0 0  9996
2 41744   4.2102  77.1345 0000555 163.5272  57.8891  0.99500873 28187
USA 271                 
1 41745U 16052B   26174.05095881 -.00000272  00000+0  00000+0 0  9991
2 41745   4.1840  77.1777 0002049 291.6696  27.7147  0.99834520 27973
INTELSAT 36 (IS-36)     
1 41747U 16053A   26176.18209406 -.00000015  00000+0  00000+0 0  9995
2 41747   0.0128  20.9268 0002042 321.7510  64.7168  1.00272521 36034
INSAT-3DR               
1 41752U 16054A   26177.10996244 -.00000066  00000+0  00000+0 0  9994
2 41752   0.1285  86.2314 0010079 187.0454 114.5183  1.00272380 35900
GSAT-18                 
1 41793U 16060A   26177.10996244 -.00000066  00000+0  00000+0 0  9996
2 41793   0.0804  93.8321 0005815 343.8192 310.1469  1.00272167 35618
SKY MUSTER 2 (NBN1B)    
1 41794U 16060B   26176.63169810 -.00000234  00000+0  00000+0 0  9992
2 41794   0.0102  13.0665 0001797  84.8900 188.0267  1.00271404 35609
HIMAWARI-9              
1 41836U 16064A   26176.98059881  .00000000  00000+0  00000+0 0  9997
2 41836   0.0245  35.1510 0001217  79.8027 292.9390  1.00269096 35290
