OBJECT_NAME,OBJECT_ID,EPOCH,MEAN_MOTION,ECCENTRICITY,INCLINATION,RA_OF_ASC_NODE,ARG_OF_PERICENTER,MEAN_ANOMALY,EPHEMERIS_TYPE,CLASSIFICATION_TYPE,NORAD_CAT_ID,ELEMENT_SET_NO,REV_AT_EPOCH,BSTAR,MEAN_MOTION_DOT,MEAN_MOTION_DDOT
LAOSAT 1,2015-067A,2026-06-26T01:11:13.216128,1.00271886,.0002656,0.0502,218.6947,191.0834,10.7156,0,U,41034,999,3894,0,-.332E-5,0
TELSTAR 12V,2015-068A,2026-06-26T03:55:40.173888,1.00273312,.0002453,0.0176,333.8107,123.0217,221.3892,0,U,41036,999,3871,0,-.108E-5,0
ELEKTRO-L 2,2015-074A,2026-06-25T22:47:48.794784,1.00271163,.0000728,6.7170,70.4166,286.6211,244.4527,0,U,41105,999,3859,0,-.113E-5,0
COSMOS 2513,2015-075A,2026-06-26T04:22:52.567104,1.00270827,.0003521,0.0748,102.4811,334.7557,343.0470,0,U,41121,999,3863,0,-.127E-5,0
EXPRESS-AMU1,2015-082A,2026-06-26T04:10:16.275072,1.00271812,.0002963,0.0168,32.8170,62.5921,277.5346,0,U,41191,999,3835,0,.166E-5,0
GAOFEN-4,2015-083A,2026-06-25T21:39:16.789824,1.00271078,.0004051,0.3805,83.9226,113.8387,146.7998,0,U,41194,999,3861,0,-.324E-5,0
BELINTERSAT-1,2016-001A,2026-06-26T04:14:38.357376,1.00270523,.0001796,0.0061,227.5388,197.8757,324.0465,0,U,41238,999,3832,0,.118E-5,0
IRNSS-1E,2016-003A,2026-06-25T14:21:38.812032,1.00274592,.0019062,33.2517,59.6282,179.1130,2.2203,0,U,41241,999,3816,0,-.319E-5,0
EUTELSAT 9B,2016-005A,2026-06-26T04:02:32.015904,1.00269851,.0001774,0.0444,62.5804,2.0921,279.2643,0,U,41310,999,3820,0,.72E-6,0
SES-9,2016-013A,2026-06-25T09:41:29.101920,1.00272436,.0002423,0.0123,330.7857,116.8635,79.5646,0,U,41380,999,3752,0,-.335E-5,0
EUTELSAT 65 WEST A,2016-014A,2026-06-26T03:26:38.832000,1.00271914,.0002733,0.0465,353.7369,98.2576,168.7467,0,U,41382,999,3761,0,-.265E-5,0
IRNSS-1F,2016-015A,2026-06-25T23:01:14.192256,1.00271994,.0017447,5.3703,96.5826,184.4675,10.7518,0,U,41384,999,3775,0,.164E-5,0
BEIDOU-2 IGSO-6,2016-021A,2026-06-24T02:12:21.652992,1.00259092,.00575384,60.2358,37.9691,231.1257,128.7042,0,U,41434,999,3755,0,-.155E-5,0
IRNSS-1G,2016-027A,2026-06-25T08:32:51.614016,1.00276580,.0006269,5.2158,97.2878,2.9813,70.7125,0,U,41469,999,3726,0,-.329E-5,0
JCSAT-2B,2016-028A,2026-06-25T23:35:48.378048,1.00271027,.0001191,0.0186,10.9972,78.5320,332.5344,0,U,41471,999,3721,0,-.155E-5,0
THAICOM 8,2016-031A,2026-06-26T04:22:22.613952,1.00272257,.0003828,0.0708,47.0889,18.6688,352.6341,0,U,41552,999,3680,0,-.11E-5,0
INTELSAT 31 (IS-31),2016-035A,2026-06-26T04:39:44.405280,1.00272040,.0000699,0.0144,283.5507,334.6918,350.9622,0,U,41581,999,3677,0,-.14E-5,0
BEIDOU-2 G7,2016-037A,2026-06-26T02:48:42.261984,1.00272762,.0006841,1.7426,69.4098,0.9868,356.5770,0,U,41586,999,697,0,-.344E-5,0
ABS-2A (MONGOLSAT-1),2016-038A,2026-06-26T02:38:35.732256,1.00264201,.0001912,0.0244,357.9583,37.7655,352.9222,0,U,41588,999,3679,0,0,0
EUTELSAT 117 WEST B,2016-038B,2026-06-26T00:01:14.882016,1.00273901,.0000346,0.0089,149.5710,105.6280,262.2624,0,U,41589,999,3675,0,-.1E-7,0
BRISAT,2016-039A,2026-06-26T03:00:03.672864,1.00271563,.0002236,0.0189,323.4089,124.7520,21.5971,0,U,41591,999,3670,0,-.186E-5,0
ECHOSTAR 18,2016-039B,2026-06-25T13:59:12.064992,1.00275248,.0001876,0.0036,86.4329,8.8577,326.8628,0,U,41592,999,3670,0,-.272E-5,0
MUOS-5,2016-041A,2026-06-26T03:50:38.440896,1.00273496,.0197926,2.1839,301.8357,260.6161,24.3040,0,U,41622,999,3717,0,-.136E-5,0
TIANTONG-1 1,2016-048A,2026-06-26T02:46:12.502272,1.00271486,.0005908,3.8662,43.4958,48.7772,324.9495,0,U,41725,999,3636,0,-.31E-5,0
JCSAT-16,2016-050A,2026-06-25T21:50:23.224128,1.00271490,.0001274,0.0184,6.0769,95.9873,283.5251,0,U,41729,999,3615,0,-.24E-5,0
USA 270,2016-052A,2026-06-22T15:12:26.817408,0.99500873,.0000555,4.2102,77.1345,163.5272,57.8891,0,U,41744,999,2818,0,-.244E-5,0
USA 271,2016-052B,2026-06-23T01:13:22.841184,0.99834520,.0002049,4.1840,77.1777,291.6696,27.7147,0,U,41745,999,2797,0,-.272E-5,0
INTELSAT 36 (IS-36),2016-053A,2026-06-25T04:22:12.926784,1.00272521,.00020421,0.0128,20.9268,321.7510,64.7168,0,U,41747,999,3603,0,-.15E-6,0
INSAT-3DR,2016-054A,2026-06-26T02:38:20.754816,1.00272380,.0010079,0.1285,86.2314,187.0454,114.5183,0,U,41752,999,3590,0,-.66E-6,0
GSAT-18,2016-060A,2026-06-26T02:38:20.754816,1.00272167,.0005815,0.0804,93.8321,343.8192,310.1469,0,U,41793,999,3561,0,-.66E-6,0
SKY MUSTER 2 (NBN1B),2016-060B,2026-06-25T15:09:38.715840,1.00271404,.0001797,0.0102,13.0665,84.8900,188.0267,0,U,41794,999,3560,0,-.234E-5,0
HIMAWARI-9,2016-064A,2026-06-25T23:32:03.737184,1.00269096,.0001217,0.0245,35.1510,79.8027,292.9390,0,U,41836,999,3529,0,0,0
